[{"OBJECT_NAME":"CREW DRAGON 12","OBJECT_ID":"2026-031A","EPOCH":"2026-03-07T12:18:20.403360","MEAN_MOTION":15.48507964,"ECCENTRICITY":0.00081324,"INCLINATION":51.6318,"RA_OF_ASC_NODE":83.1189,"ARG_OF_PERICENTER":167.0679,"MEAN_ANOMALY":193.052,"EPHEMERIS_TYPE":0,"CLASSIFICATION_TYPE":"U","NORAD_CAT_ID":67796,"ELEMENT_SET_NO":999,"REV_AT_EPOCH":55588,"BSTAR":0.00027601504,"MEAN_MOTION_DOT":0.00014539,"MEAN_MOTION_DDOT":0}]
